CCSDS_OMM_VERS = 2.0
CREATION_DATE  = 
ORIGINATOR     = 

OBJECT_NAME    = KUIPER-00177
OBJECT_ID      = 2026-030C
CENTER_NAME    = EARTH
REF_FRAME      = TEME
TIME_SYSTEM    = UTC
MEAN_ELEMENT_THEORY = SGP/SGP4

EPOCH          = 2026-03-04T19:20:21.881184
MEAN_MOTION    = 15.36310570
ECCENTRICITY   = .0000986
INCLINATION    = 51.8827
RA_OF_ASC_NODE = 242.5916
ARG_OF_PERICENTER = 16.8120
MEAN_ANOMALY   = 343.2899

EPHEMERIS_TYPE = 0
CLASSIFICATION_TYPE = U
NORAD_CAT_ID   = 67766
ELEMENT_SET_NO = 999
REV_AT_EPOCH   = 434
BSTAR          = .12654E-2
MEAN_MOTION_DOT = .4538E-3
MEAN_MOTION_DDOT = 0

CCSDS_OMM_VERS = 2.0
CREATION_DATE  = 
ORIGINATOR     = 

OBJECT_NAME    = KUIPER-00178
OBJECT_ID      = 2026-030D
CENTER_NAME    = EARTH
REF_FRAME      = TEME
TIME_SYSTEM    = UTC
MEAN_ELEMENT_THEORY = SGP/SGP4

EPOCH          = 2026-03-04T18:06:07.134336
MEAN_MOTION    = 15.35301033
ECCENTRICITY   = .0005981
INCLINATION    = 51.8832
RA_OF_ASC_NODE = 242.9926
ARG_OF_PERICENTER = 32.5538
MEAN_ANOMALY   = 327.5816

EPHEMERIS_TYPE = 0
CLASSIFICATION_TYPE = U
NORAD_CAT_ID   = 67767
ELEMENT_SET_NO = 999
REV_AT_EPOCH   = 433
BSTAR          = .86861E-3
MEAN_MOTION_DOT = .29983E-3
MEAN_MOTION_DDOT = 0

CCSDS_OMM_VERS = 2.0
CREATION_DATE  = 
ORIGINATOR     = 

OBJECT_NAME    = KUIPER-00180
OBJECT_ID      = 2026-030E
CENTER_NAME    = EARTH
REF_FRAME      = TEME
TIME_SYSTEM    = UTC
MEAN_ELEMENT_THEORY = SGP/SGP4

EPOCH          = 2026-03-04T18:48:09.165024
MEAN_MOTION    = 15.32125736
ECCENTRICITY   = .001464
INCLINATION    = 51.8797
RA_OF_ASC_NODE = 243.1737
ARG_OF_PERICENTER = 54.3029
MEAN_ANOMALY   = 305.9316

EPHEMERIS_TYPE = 0
CLASSIFICATION_TYPE = U
NORAD_CAT_ID   = 67768
ELEMENT_SET_NO = 999
REV_AT_EPOCH   = 433
BSTAR          = .32953E-3
MEAN_MOTION_DOT = .10043E-3
MEAN_MOTION_DDOT = 0

CCSDS_OMM_VERS = 2.0
CREATION_DATE  = 
ORIGINATOR     = 

OBJECT_NAME    = KUIPER-00197
OBJECT_ID      = 2026-030F
CENTER_NAME    = EARTH
REF_FRAME      = TEME
TIME_SYSTEM    = UTC
MEAN_ELEMENT_THEORY = SGP/SGP4

EPOCH          = 2026-03-04T17:49:42.323808
MEAN_MOTION    = 15.36176669
ECCENTRICITY   = .0001331
INCLINATION    = 51.8835
RA_OF_ASC_NODE = 242.9195
ARG_OF_PERICENTER = 46.2995
MEAN_ANOMALY   = 313.8102

EPHEMERIS_TYPE = 0
CLASSIFICATION_TYPE = U
NORAD_CAT_ID   = 67769
ELEMENT_SET_NO = 999
REV_AT_EPOCH   = 433
BSTAR          = .11868E-2
MEAN_MOTION_DOT = .42334E-3
MEAN_MOTION_DDOT = 0

CCSDS_OMM_VERS = 2.0
CREATION_DATE  = 
ORIGINATOR     = 

OBJECT_NAME    = KUIPER-00198
OBJECT_ID      = 2026-030G
CENTER_NAME    = EARTH
REF_FRAME      = TEME
TIME_SYSTEM    = UTC
MEAN_ELEMENT_THEORY = SGP/SGP4

EPOCH          = 2026-03-04T19:30:11.626848
MEAN_MOTION    = 15.35800226
ECCENTRICITY   = .0002974
INCLINATION    = 51.8808
RA_OF_ASC_NODE = 242.6311
ARG_OF_PERICENTER = 36.2689
MEAN_ANOMALY   = 323.8498

EPHEMERIS_TYPE = 0
CLASSIFICATION_TYPE = U
NORAD_CAT_ID   = 67770
ELEMENT_SET_NO = 999
REV_AT_EPOCH   = 434
BSTAR          = .58919E-3
MEAN_MOTION_DOT = .20511E-3
MEAN_MOTION_DDOT = 0

CCSDS_OMM_VERS = 2.0
CREATION_DATE  = 
ORIGINATOR     = 

OBJECT_NAME    = KUIPER-00199
OBJECT_ID      = 2026-030H
CENTER_NAME    = EARTH
REF_FRAME      = TEME
TIME_SYSTEM    = UTC
MEAN_ELEMENT_THEORY = SGP/SGP4

EPOCH          = 2026-03-04T18:26:49.009920
MEAN_MOTION    = 15.34146210
ECCENTRICITY   = .001038
INCLINATION    = 51.8809
RA_OF_ASC_NODE = 243.0794
ARG_OF_PERICENTER = 47.3877
MEAN_ANOMALY   = 312.7982

EPHEMERIS_TYPE = 0
CLASSIFICATION_TYPE = U
NORAD_CAT_ID   = 67771
ELEMENT_SET_NO = 999
REV_AT_EPOCH   = 433
BSTAR          = .1271E-2
MEAN_MOTION_DOT = .42569E-3
MEAN_MOTION_DDOT = 0

CCSDS_OMM_VERS = 2.0
CREATION_DATE  = 
ORIGINATOR     = 

OBJECT_NAME    = KUIPER-00200
OBJECT_ID      = 2026-030J
CENTER_NAME    = EARTH
REF_FRAME      = TEME
TIME_SYSTEM    = UTC
MEAN_ELEMENT_THEORY = SGP/SGP4

EPOCH          = 2026-03-04T17:38:07.844064
MEAN_MOTION    = 15.36812247
ECCENTRICITY   = .0001334
INCLINATION    = 51.8804
RA_OF_ASC_NODE = 242.8644
ARG_OF_PERICENTER = 214.5163
MEAN_ANOMALY   = 145.5737

EPHEMERIS_TYPE = 0
CLASSIFICATION_TYPE = U
NORAD_CAT_ID   = 67772
ELEMENT_SET_NO = 999
REV_AT_EPOCH   = 433
BSTAR          = .84848E-3
MEAN_MOTION_DOT = .30738E-3
MEAN_MOTION_DDOT = 0

CCSDS_OMM_VERS = 2.0
CREATION_DATE  = 
ORIGINATOR     = 

OBJECT_NAME    = KUIPER-00203
OBJECT_ID      = 2026-030K
CENTER_NAME    = EARTH
REF_FRAME      = TEME
TIME_SYSTEM    = UTC
MEAN_ELEMENT_THEORY = SGP/SGP4

EPOCH          = 2026-03-04T20:00:03.000384
MEAN_MOTION    = 15.24952797
ECCENTRICITY   = .0012117
INCLINATION    = 51.8816
RA_OF_ASC_NODE = 242.9805
ARG_OF_PERICENTER = 49.4214
MEAN_ANOMALY   = 186.0828

EPHEMERIS_TYPE = 0
CLASSIFICATION_TYPE = U
NORAD_CAT_ID   = 67773
ELEMENT_SET_NO = 999
REV_AT_EPOCH   = 290
BSTAR          = -.53485E-1
MEAN_MOTION_DOT = -.1243579E-1
MEAN_MOTION_DDOT = 0

CCSDS_OMM_VERS = 2.0
CREATION_DATE  = 
ORIGINATOR     = 

OBJECT_NAME    = KUIPER-00205
OBJECT_ID      = 2026-030L
CENTER_NAME    = EARTH
REF_FRAME      = TEME
TIME_SYSTEM    = UTC
MEAN_ELEMENT_THEORY = SGP/SGP4

EPOCH          = 2026-03-04T17:50:46.390272
MEAN_MOTION    = 15.36158693
ECCENTRICITY   = .0002827
INCLINATION    = 51.8812
RA_OF_ASC_NODE = 242.9207
ARG_OF_PERICENTER = 6.3042
MEAN_ANOMALY   = 353.7979

EPHEMERIS_TYPE = 0
CLASSIFICATION_TYPE = U
NORAD_CAT_ID   = 67774
ELEMENT_SET_NO = 999
REV_AT_EPOCH   = 433
BSTAR          = .10936E-2
MEAN_MOTION_DOT = .38942E-3
MEAN_MOTION_DDOT = 0

CCSDS_OMM_VERS = 2.0
CREATION_DATE  = 
ORIGINATOR     = 

OBJECT_NAME    = KUIPER-00208
OBJECT_ID      = 2026-030M
CENTER_NAME    = EARTH
REF_FRAME      = TEME
TIME_SYSTEM    = UTC
MEAN_ELEMENT_THEORY = SGP/SGP4

EPOCH          = 2026-03-04T18:44:22.727040
MEAN_MOTION    = 15.32539941
ECCENTRICITY   = .0013762
INCLINATION    = 51.8823
RA_OF_ASC_NODE = 243.1651
ARG_OF_PERICENTER = 44.5755
MEAN_ANOMALY   = 315.6334

EPHEMERIS_TYPE = 0
CLASSIFICATION_TYPE = U
NORAD_CAT_ID   = 67775
ELEMENT_SET_NO = 999
REV_AT_EPOCH   = 433
BSTAR          = -.43177E-3
MEAN_MOTION_DOT = -.14164E-3
MEAN_MOTION_DDOT = 0

CCSDS_OMM_VERS = 2.0
CREATION_DATE  = 
ORIGINATOR     = 

OBJECT_NAME    = KUIPER-00209
OBJECT_ID      = 2026-030N
CENTER_NAME    = EARTH
REF_FRAME      = TEME
TIME_SYSTEM    = UTC
MEAN_ELEMENT_THEORY = SGP/SGP4

EPOCH          = 2026-03-04T18:50:57.593184
MEAN_MOTION    = 15.31011124
ECCENTRICITY   = .0012577
INCLINATION    = 51.8813
RA_OF_ASC_NODE = 243.1923
ARG_OF_PERICENTER = 51.8736
MEAN_ANOMALY   = 308.3380

EPHEMERIS_TYPE = 0
CLASSIFICATION_TYPE = U
NORAD_CAT_ID   = 67776
ELEMENT_SET_NO = 999
REV_AT_EPOCH   = 433
BSTAR          = -.1352E-2
MEAN_MOTION_DOT = -.41353E-3
MEAN_MOTION_DDOT = 0

CCSDS_OMM_VERS = 2.0
CREATION_DATE  = 
ORIGINATOR     = 

OBJECT_NAME    = KUIPER-00213
OBJECT_ID      = 2026-030P
CENTER_NAME    = EARTH
REF_FRAME      = TEME
TIME_SYSTEM    = UTC
MEAN_ELEMENT_THEORY = SGP/SGP4

EPOCH          = 2026-03-04T18:45:26.742528
MEAN_MOTION    = 15.32539947
ECCENTRICITY   = .0014984
INCLINATION    = 51.8795
RA_OF_ASC_NODE = 243.1616
ARG_OF_PERICENTER = 50.5360
MEAN_ANOMALY   = 309.6948

EPHEMERIS_TYPE = 0
CLASSIFICATION_TYPE = U
NORAD_CAT_ID   = 67777
ELEMENT_SET_NO = 999
REV_AT_EPOCH   = 433
BSTAR          = .109E-2
MEAN_MOTION_DOT = .34661E-3
MEAN_MOTION_DDOT = 0

